     3.05           N: GNSS NAV DATA    S: SBAS Payload     RINEX VERSION / TYPE
JPS2RIN v.2.1.237   JAVAD GNSS          20260605 101053 UTC PGM / RUN BY / DATE
    18                                                      LEAP SECONDS
                                                            END OF HEADER
S44 2026 06 05 08 36 16 2.831220626831D-07 0.000000000000D+00 4.628730000000D+05
     7.307435040000D+03-3.539999961853D-03-1.999999949476D-07 0.000000000000D+00
     4.147897384000D+04-2.618749856949D-03 1.625000004424D-07 1.500000000000D+01
     1.735537200000D+03 8.557200622559D-02-4.562500398606D-06 1.440000000000D+02
S29 2026 06 05 08 36 32 5.122274160385D-09 0.000000000000D+00 4.629980000000D+05
    -3.563424800000D+02-1.359375000000D-03 0.000000000000D+00 0.000000000000D+00
     4.215371120000D+04 3.343749940395D-04 0.000000000000D+00 1.500000000000D+01
     2.368600000000D+01-2.840000092983D-04 0.000000000000D+00 1.450000000000D+02
S27 2026 06 05 08 37 20 1.024454832077D-08 2.273736754432D-11 4.630180000000D+05
     2.412848136000D+04 2.860625028610D-03-1.124999980675D-07 0.000000000000D+00
     3.458744712000D+04-1.195624947548D-03-3.124999930151D-07 1.400000000000D+01
    -8.727760000000D+01 1.122600021362D-01 3.750000032596D-07 1.480000000000D+02
S28 2026 06 05 08 37 20 0.000000000000D+00 0.000000000000D+00 4.630180000000D+05
     5.115412960000D+03-3.062499873340D-05 1.124999980675D-07 0.000000000000D+00
     4.185574808000D+04 7.349999547005D-04 4.999999873689D-08 1.500000000000D+01
     8.104000000000D+00-9.200000762939D-05-6.250000296859D-08 1.480000000000D+02
S36 2026 06 05 08 37 36 0.000000000000D+00 0.000000000000D+00 4.630720000000D+05
     4.200368800000D+04 0.000000000000D+00 0.000000000000D+00 0.000000000000D+00
     3.674846960000D+03 0.000000000000D+00 0.000000000000D+00 1.500000000000D+01
     0.000000000000D+00 0.000000000000D+00 0.000000000000D+00 1.490000000000D+02
S22 2026 06 05 08 39 28 0.000000000000D+00 0.000000000000D+00 4.631770000000D+05
    -3.389392800000D+04 0.000000000000D+00 0.000000000000D+00 0.000000000000D+00
     2.508018800000D+04 0.000000000000D+00 0.000000000000D+00 1.500000000000D+01
     0.000000000000D+00 0.000000000000D+00 0.000000000000D+00 1.560000000000D+02
S36 2026 06 05 08 40 16 0.000000000000D+00 0.000000000000D+00 4.632240000000D+05
     4.200368800000D+04 0.000000000000D+00 0.000000000000D+00 0.000000000000D+00
     3.674846960000D+03 0.000000000000D+00 0.000000000000D+00 1.500000000000D+01
     0.000000000000D+00 0.000000000000D+00 0.000000000000D+00 1.590000000000D+02
S23 2026 06 05 08 41 04 0.000000000000D+00 0.000000000000D+00 4.632780000000D+05
     3.866796400000D+04 0.000000000000D+00 0.000000000000D+00 0.000000000000D+00
     1.681330800000D+04 0.000000000000D+00 0.000000000000D+00 1.500000000000D+01
     0.000000000000D+00 0.000000000000D+00 0.000000000000D+00 1.620000000000D+02
S29 2026 06 05 08 41 20 4.656612873077D-09 0.000000000000D+00 4.632980000000D+05
    -3.567318400000D+02-1.344375014305D-03 0.000000000000D+00 0.000000000000D+00
     4.215380976000D+04 3.493749797344D-04 0.000000000000D+00 1.500000000000D+01
     2.359920000000D+01-3.200000226498D-04 0.000000000000D+00 1.630000000000D+02
S28 2026 06 05 08 41 36 0.000000000000D+00 0.000000000000D+00 4.633600000000D+05
     5.115398640000D+03-1.874999888241D-05 9.999999747379D-08 0.000000000000D+00
     4.185589024000D+04 6.800000071526D-04 4.999999873689D-08 1.500000000000D+01
     8.082400000000D+00-9.600000083447D-05-6.250000296859D-08 1.640000000000D+02
S32 2026 06 05 08 41 36-1.639127731323D-07-4.547473508865D-12 4.633600000000D+05
    -2.606158720000D+03-2.125000000000D-03 1.249999913853D-07 0.000000000000D+00
     4.207066256000D+04 7.031250000000D-04 9.999999747379D-08 1.400000000000D+01
     1.451320000000D+01 9.680000543594D-04-6.250000296859D-08 1.640000000000D+02
S36 2026 06 05 08 42 56 0.000000000000D+00 0.000000000000D+00 4.633800000000D+05
     4.200368800000D+04 0.000000000000D+00 0.000000000000D+00 0.000000000000D+00
     3.674846960000D+03 0.000000000000D+00 0.000000000000D+00 1.500000000000D+01
     0.000000000000D+00 0.000000000000D+00 0.000000000000D+00 1.690000000000D+02
S23 2026 06 05 08 43 44 0.000000000000D+00 0.000000000000D+00 4.635060000000D+05
     3.866796400000D+04 0.000000000000D+00 0.000000000000D+00 0.000000000000D+00
     1.681330800000D+04 0.000000000000D+00 0.000000000000D+00 1.500000000000D+01
     0.000000000000D+00 0.000000000000D+00 0.000000000000D+00 1.720000000000D+02
S36 2026 06 05 08 45 20 0.000000000000D+00 0.000000000000D+00 4.635320000000D+05
     4.200368800000D+04 0.000000000000D+00 0.000000000000D+00 0.000000000000D+00
     3.674846960000D+03 0.000000000000D+00 0.000000000000D+00 1.500000000000D+01
     0.000000000000D+00 0.000000000000D+00 0.000000000000D+00 1.780000000000D+02
S32 2026 06 05 08 45 52-1.648440957069D-07 0.000000000000D+00 4.635270000000D+05
    -2.606698640000D+03-2.098124980927D-03 1.374999992549D-07 0.000000000000D+00
     4.207084584000D+04 7.043749690056D-04 9.999999747379D-08 1.400000000000D+01
     1.475880000000D+01 9.480000734329D-04-6.250000296859D-08 1.800000000000D+02
S37 2026 06 05 08 46 08-1.271255314350D-07 0.000000000000D+00 4.635790000000D+05
    -2.541337544000D+04-1.086249947548D-03 0.000000000000D+00 0.000000000000D+00
     3.363962040000D+04 3.149999976158D-04 0.000000000000D+00 1.500000000000D+01
    -2.768720000000D+01 8.840000629425D-04 0.000000000000D+00 1.810000000000D+02
S29 2026 06 05 08 46 24 4.656612873077D-09 0.000000000000D+00 4.635980000000D+05
    -3.571381600000D+02-1.328125000000D-03 0.000000000000D+00 0.000000000000D+00
     4.215391840000D+04 3.649999797344D-04 0.000000000000D+00 1.500000000000D+01
     2.349680000000D+01-3.560000061989D-04 0.000000000000D+00 1.820000000000D+02
S37 2026 06 05 08 47 12-1.271255314350D-07 0.000000000000D+00 4.636390000000D+05
    -2.541344480000D+04-1.080624938011D-03 0.000000000000D+00 0.000000000000D+00
     3.363964072000D+04 3.212499916553D-04 0.000000000000D+00 1.500000000000D+01
    -2.763000000000D+01 8.960000276566D-04 0.000000000000D+00 1.850000000000D+02
S22 2026 06 05 08 47 44 0.000000000000D+00 0.000000000000D+00 4.636720000000D+05
    -3.389392800000D+04 0.000000000000D+00 0.000000000000D+00 0.000000000000D+00
     2.508018800000D+04 0.000000000000D+00 0.000000000000D+00 1.500000000000D+01
     0.000000000000D+00 0.000000000000D+00 0.000000000000D+00 1.870000000000D+02
S36 2026 06 05 08 48 00 0.000000000000D+00 0.000000000000D+00 4.636840000000D+05
     4.200368800000D+04 0.000000000000D+00 0.000000000000D+00 0.000000000000D+00
     3.674846960000D+03 0.000000000000D+00 0.000000000000D+00 1.500000000000D+01
     0.000000000000D+00 0.000000000000D+00 0.000000000000D+00 1.880000000000D+02
S23 2026 06 05 08 48 48 0.000000000000D+00 0.000000000000D+00 4.638140000000D+05
     3.866796400000D+04 0.000000000000D+00 0.000000000000D+00 0.000000000000D+00
     1.681330800000D+04 0.000000000000D+00 0.000000000000D+00 1.500000000000D+01
     0.000000000000D+00 0.000000000000D+00 0.000000000000D+00 1.910000000000D+02
S29 2026 06 05 08 50 24 4.656612873077D-09 0.000000000000D+00 4.638380000000D+05
    -3.574554400000D+02-1.314999938011D-03 0.000000000000D+00 0.000000000000D+00
     4.215400752000D+04 3.774999976158D-04 0.000000000000D+00 1.500000000000D+01
     2.340800000000D+01-3.840000033379D-04 0.000000000000D+00 1.970000000000D+02
S36 2026 06 05 08 50 24 0.000000000000D+00 0.000000000000D+00 4.638400000000D+05
     4.200368800000D+04 0.000000000000D+00 0.000000000000D+00 0.000000000000D+00
     3.674846960000D+03 0.000000000000D+00 0.000000000000D+00 1.500000000000D+01
     0.000000000000D+00 0.000000000000D+00 0.000000000000D+00 1.970000000000D+02
S29 2026 06 05 08 52 32 4.656612873077D-09 0.000000000000D+00 4.639580000000D+05
    -3.576233600000D+02-1.308125019073D-03 0.000000000000D+00 0.000000000000D+00
     4.215405624000D+04 3.837499916553D-04 0.000000000000D+00 1.500000000000D+01
     2.335800000000D+01-4.000000059605D-04 0.000000000000D+00 2.050000000000D+02
S22 2026 06 05 08 53 04 0.000000000000D+00 0.000000000000D+00 4.639980000000D+05
    -3.389392800000D+04 0.000000000000D+00 0.000000000000D+00 0.000000000000D+00
     2.508018800000D+04 0.000000000000D+00 0.000000000000D+00 1.500000000000D+01
     0.000000000000D+00 0.000000000000D+00 0.000000000000D+00 2.070000000000D+02
S36 2026 06 05 08 53 04 0.000000000000D+00 0.000000000000D+00 4.639920000000D+05
     4.200368800000D+04 0.000000000000D+00 0.000000000000D+00 0.000000000000D+00
     3.674846960000D+03 0.000000000000D+00 0.000000000000D+00 1.500000000000D+01
     0.000000000000D+00 0.000000000000D+00 0.000000000000D+00 2.070000000000D+02
S29 2026 06 05 08 53 20 4.656612873077D-09 0.000000000000D+00 4.640180000000D+05
    -3.576860000000D+02-1.304999947548D-03 0.000000000000D+00 0.000000000000D+00
     4.215407472000D+04 3.862499892712D-04 0.000000000000D+00 1.500000000000D+01
     2.333840000000D+01-4.040000140667D-04 0.000000000000D+00 2.080000000000D+02
S23 2026 06 05 08 53 52 0.000000000000D+00 0.000000000000D+00 4.641220000000D+05
     3.866796400000D+04 0.000000000000D+00 0.000000000000D+00 0.000000000000D+00
     1.681330800000D+04 0.000000000000D+00 0.000000000000D+00 1.500000000000D+01
     0.000000000000D+00 0.000000000000D+00 0.000000000000D+00 2.100000000000D+02
S37 2026 06 05 08 54 08-1.271255314350D-07 0.000000000000D+00 4.640590000000D+05
    -2.541388632000D+04-1.041875004768D-03 0.000000000000D+00 0.000000000000D+00
     3.363978328000D+04 3.637499809265D-04 0.000000000000D+00 1.500000000000D+01
    -2.724480000000D+01 9.560000300407D-04 0.000000000000D+00 2.110000000000D+02
